{
    "links": {
        "self": "http://www.neowsapp.com/rest/v1/neo/3699497?api_key=iIulBulltgU6a56xZRHN4H3l9WmuAYTsLGpBGhQ2"
    },
    "id": "3699497",
    "neo_reference_id": "3699497",
    "name": "(2014 WP364)",
    "designation": "2014 WP364",
    "nasa_jpl_url": "http://ssd.jpl.nasa.gov/sbdb.cgi?sstr=3699497",
    "absolute_magnitude_h": 19.9,
    "estimated_diameter": {
        "kilometers": {
            "estimated_diameter_min": 0.2783267681,
            "estimated_diameter_max": 0.6223575734
        },
        "meters": {
            "estimated_diameter_min": 278.3267680719,
            "estimated_diameter_max": 622.3575733667
        },
        "miles": {
            "estimated_diameter_min": 0.1729441822,
            "estimated_diameter_max": 0.3867149477
        },
        "feet": {
            "estimated_diameter_min": 913.1455937611,
            "estimated_diameter_max": 2041.8556210042
        }
    },
    "is_potentially_hazardous_asteroid": false,
    "close_approach_data": [
        {
            "close_approach_date": "2001-11-21",
            "close_approach_date_full": "2001-Nov-21 18:53",
            "epoch_date_close_approach": 1006368780000,
            "relative_velocity": {
                "kilometers_per_second": "5.739543467",
                "kilometers_per_hour": "20662.3564813614",
                "miles_per_hour": "12838.7847814326"
            },
            "miss_distance": {
                "astronomical": "0.3094007877",
                "lunar": "120.3569064153",
                "kilometers": "46285698.816242199",
                "miles": "28760599.5976883862"
            },
            "orbiting_body": "Earth"
        },
        {
            "close_approach_date": "2014-12-07",
            "close_approach_date_full": "2014-Dec-07 03:50",
            "epoch_date_close_approach": 1417924200000,
            "relative_velocity": {
                "kilometers_per_second": "5.4429517479",
                "kilometers_per_hour": "19594.6262923025",
                "miles_per_hour": "12175.3387647921"
            },
            "miss_distance": {
                "astronomical": "0.4461012867",
                "lunar": "173.5334005263",
                "kilometers": "66735802.294579329",
                "miles": "41467704.6628355802"
            },
            "orbiting_body": "Earth"
        },
        {
            "close_approach_date": "2029-11-29",
            "close_approach_date_full": "2029-Nov-29 02:23",
            "epoch_date_close_approach": 1890613380000,
            "relative_velocity": {
                "kilometers_per_second": "3.4881244989",
                "kilometers_per_hour": "12557.2481961603",
                "miles_per_hour": "7802.5856916642"
            },
            "miss_distance": {
                "astronomical": "1.8320838864",
                "lunar": "712.6806318096",
                "kilometers": "274075847.066761968",
                "miles": "170302834.3199244384"
            },
            "orbiting_body": "Juptr"
        },
        {
            "close_approach_date": "2057-11-19",
            "close_approach_date_full": "2057-Nov-19 18:37",
            "epoch_date_close_approach": 2773420620000,
            "relative_velocity": {
                "kilometers_per_second": "5.9659213686",
                "kilometers_per_hour": "21477.3169269873",
                "miles_per_hour": "13345.1695094383"
            },
            "miss_distance": {
                "astronomical": "0.3333905088",
                "lunar": "129.6889079232",
                "kilometers": "49874509.994696256",
                "miles": "30990583.4582540928"
            },
            "orbiting_body": "Earth"
        }
    ],
    "orbital_data": {
        "orbit_id": "7",
        "orbit_determination_date": "2017-04-06 08:37:07",
        "first_observation_date": "2014-11-27",
        "last_observation_date": "2015-01-18",
        "data_arc_in_days": 52,
        "observations_used": 20,
        "orbit_uncertainty": "5",
        "minimum_orbit_intersection": ".307027",
        "jupiter_tisserand_invariant": "3.162",
        "epoch_osculation": "2459000.5",
        "eccentricity": ".521188864590058",
        "semi_major_axis": "2.647997453130735",
        "inclination": "10.58207452282034",
        "ascending_node_longitude": "94.14799863165507",
        "orbital_period": "1573.891433099215",
        "perihelion_distance": "1.267890667096162",
        "perihelion_argument": "318.437603449808",
        "aphelion_distance": "4.028104239165308",
        "perihelion_time": "2458531.739976165731",
        "mean_anomaly": "107.220615749866",
        "mean_motion": ".2287324223444745",
        "equinox": "J2000",
        "orbit_class": {
            "orbit_class_type": "AMO",
            "orbit_class_description": "Near-Earth asteroid orbits similar to that of 1221 Amor",
            "orbit_class_range": "1.017 AU < q (perihelion) < 1.3 AU"
        }
    },
    "is_sentry_object": false
}